OBJECT_NAME,OBJECT_ID,EPOCH,MEAN_MOTION,ECCENTRICITY,INCLINATION,RA_OF_ASC_NODE,ARG_OF_PERICENTER,MEAN_ANOMALY,EPHEMERIS_TYPE,CLASSIFICATION_TYPE,NORAD_CAT_ID,ELEMENT_SET_NO,REV_AT_EPOCH,BSTAR,MEAN_MOTION_DOT,MEAN_MOTION_DDOT
SHUNTIAN,2019-093H,2026-05-19T11:54:27.613152,14.94995055,.0012249,97.8002,227.8076,155.0249,205.1566,0,U,44886,999,34789,.10283E-3,.1067E-4,0
ELEKTRO-L 3,2019-095A,2026-05-19T11:13:01.143840,1.00270736,.0000914,0.1829,80.0840,316.0717,85.1807,0,U,44903,999,2342,0,-.97E-6,0
GONETS-M 14,2019-096A,2026-05-19T13:14:33.754848,12.42868778,.0012358,82.5211,102.3928,211.8817,148.1516,0,U,44905,999,29012,-.15397E-3,-.11E-6,0
GONETS-M 15,2019-096B,2026-05-19T12:01:01.750944,12.42869854,.0013981,82.5229,102.8813,237.1024,122.8711,0,U,44906,999,29008,-.58464E-3,-.71E-6,0
GONETS-M 16,2019-096C,2026-05-19T12:39:29.843136,12.42890690,.0009718,82.5177,101.8307,284.2454,75.7546,0,U,44907,999,29007,-.18475E-3,-.16E-6,0
RS-44 & BREEZE-KM R/B,2019-096E,2026-05-19T07:30:01.475712,12.79748307,.0216876,82.5232,358.8959,211.6618,147.1288,0,U,44909,999,29865,.54705E-4,.24E-6,0
JILIN-1 KUANFU 01,2020-003A,2026-05-19T11:19:00.655968,15.10544604,.0010816,97.5034,213.9899,48.8732,311.3430,0,U,45016,999,35099,.12098E-3,.1934E-4,0
XINGYUN-2 01,2020-028A,2026-05-19T11:33:12.503808,15.11672221,.0007693,97.4861,132.4557,312.4805,47.5775,0,U,45602,999,33050,.66436E-4,.1067E-4,0
XINGYUN-2 02,2020-028B,2026-05-19T12:30:30.883392,15.11407668,.0011657,97.5073,146.0191,20.1996,339.9693,0,U,45603,999,33050,.6597E-4,.1051E-4,0
HAIYANG-1D,2020-036A,2026-05-19T12:11:46.575744,14.34162379,.000168,98.4553,81.8139,214.0714,146.0363,0,U,45721,999,31086,.54429E-4,.109E-5,0
M2 PATHFINDER,2020-037E,2026-05-19T12:23:49.653888,15.04536865,.0009957,97.8159,330.4282,246.5960,113.4219,0,U,45727,999,32118,.79258E-4,.1047E-4,0
GAOFEN DUOMO (GFDM),2020-042A,2026-05-19T13:09:13.672224,14.76836915,.00114,97.7761,200.4736,158.1928,201.9770,0,U,45856,999,31678,.11591E-3,.765E-5,0
ZIYUAN 3-03 (ZY 3-03),2020-051A,2026-05-19T12:11:22.022592,15.21275845,.0005889,97.2848,208.1576,56.7218,303.4582,0,U,45939,999,32298,.15434E-4,.279E-5,0
NEMO-HD,2020-061F,2026-05-19T11:44:24.826272,15.43960072,.0002604,97.1932,201.7424,115.4835,244.6683,0,U,46277,999,31755,.15455E-3,.6948E-4,0
NAPA-1,2020-061BA,2026-05-19T12:52:39.609984,15.64213164,.0001837,97.2480,212.8562,140.5420,219.5974,0,U,46320,999,31725,.42377E-3,.40294E-3,0
JILIN-1 GAOFEN 3E,2020-065D,2026-05-19T12:27:59.603040,15.60224696,.0010071,97.2277,191.5353,257.1734,102.8399,0,U,46457,999,31528,.47964E-3,.39178E-3,0
JILIN-1 GAOFEN 3F,2020-065E,2026-05-19T11:58:22.156320,15.57965194,.0011698,97.2233,188.9761,246.3525,113.6503,0,U,46458,999,31523,.46322E-3,.34747E-3,0
JILIN-1 GAOFEN 3G,2020-065F,2026-05-19T12:06:34.947360,15.66189725,.0012647,97.2306,195.3555,151.3619,208.8338,0,U,46459,999,31544,.61559E-3,.63795E-3,0
JILIN-1 GAOFEN 3H,2020-065G,2026-05-19T11:39:39.189600,15.63634039,.0008772,97.2249,191.8166,101.3998,258.8247,0,U,46460,999,31539,.52837E-3,.49279E-3,0
HAIYANG-2C,2020-066A,2026-05-19T12:53:20.730336,13.83371608,.0009952,65.9976,286.6151,239.7490,120.2593,0,U,46469,999,28553,-.4009E-4,-.125E-5,0
HJ-2A,2020-067A,2026-05-19T12:00:19.537632,14.76569733,.0003707,97.8830,218.5482,23.3159,336.8219,0,U,46478,999,30402,.24094E-4,.118E-5,0
HJ-2B,2020-067B,2026-05-19T11:15:05.596128,14.76517371,.000127,97.8894,219.5179,78.8064,281.3288,0,U,46479,999,30402,.88863E-4,.569E-5,0
GONETS-M 17,2020-068A,2026-05-19T13:15:06.681024,12.42872124,.0023392,82.5007,5.3194,96.9103,263.4639,0,U,46486,999,25560,.22124E-3,.41E-6,0
GONETS-M 18,2020-068B,2026-05-19T12:22:46.479072,12.42871971,.0020709,82.4960,4.4708,93.4308,266.9141,0,U,46487,999,25558,.11619E-2,.171E-5,0
GONETS-M 19,2020-068C,2026-05-19T11:47:59.273664,12.42891520,.0014337,82.4985,4.9309,107.1662,253.0989,0,U,46488,999,25568,.6575E-3,.101E-5,0
DEKART,2020-068H,2026-05-19T13:27:58.034304,15.36622279,.0009956,97.8748,146.7978,38.1088,322.0857,0,U,46493,999,31137,.22432E-3,.7943E-4,0
NORBI,2020-068J,2026-05-19T12:24:42.314688,15.47133031,.0006682,97.8639,152.9843,21.2311,338.9213,0,U,46494,999,31177,.30475E-3,.15377E-3,0
