SHUNTIAN                
1 44886U 19093H   26139.49615293  .00001067  00000+0  10283-3 0  9992
2 44886  97.8002 227.8076 0012249 155.0249 205.1566 14.94995055347891
ELEKTRO-L 3             
1 44903U 19095A   26139.46737435 -.00000097  00000+0  00000+0 0  9999
2 44903   0.1829  80.0840 0000914 316.0717  85.1807  1.00270736 23427
GONETS-M 14             
1 44905U 19096A   26139.55177957 -.00000011  00000+0 -15397-3 0  9995
2 44905  82.5211 102.3928 0012358 211.8817 148.1516 12.42868778290128
GONETS-M 15             
1 44906U 19096B   26139.50071471 -.00000071  00000+0 -58464-3 0  9993
2 44906  82.5229 102.8813 0013981 237.1024 122.8711 12.42869854290087
GONETS-M 16             
1 44907U 19096C   26139.52742874 -.00000016  00000+0 -18475-3 0  9995
2 44907  82.5177 101.8307 0009718 284.2454  75.7546 12.42890690290073
RS-44 & BREEZE-KM R/B   
1 44909U 19096E   26139.31251708  .00000024  00000+0  54705-4 0  9999
2 44909  82.5232 358.8959 0216876 211.6618 147.1288 12.79748307298651
JILIN-1 KUANFU 01       
1 45016U 20003A   26139.47153537  .00001934  00000+0  12098-3 0  9996
2 45016  97.5034 213.9899 0010816  48.8732 311.3430 15.10544604350996
XINGYUN-2 01            
1 45602U 20028A   26139.48139472  .00001067  00000+0  66436-4 0  9990
2 45602  97.4861 132.4557 0007693 312.4805  47.5775 15.11672221330503
XINGYUN-2 02            
1 45603U 20028B   26139.52119078  .00001051  00000+0  65970-4 0  9991
2 45603  97.5073 146.0191 0011657  20.1996 339.9693 15.11407668330502
HAIYANG-1D              
1 45721U 20036A   26139.50817796  .00000109  00000+0  54429-4 0  9991
2 45721  98.4553  81.8139 0001680 214.0714 146.0363 14.34162379310860
M2 PATHFINDER           
1 45727U 20037E   26139.51654692  .00001047  00000+0  79258-4 0  9992
2 45727  97.8159 330.4282 0009957 246.5960 113.4219 15.04536865321189
GAOFEN DUOMO (GFDM)     
1 45856U 20042A   26139.54807491  .00000765  00000+0  11591-3 0  9992
2 45856  97.7761 200.4736 0011400 158.1928 201.9770 14.76836915316780
ZIYUAN 3-03 (ZY 3-03)   
1 45939U 20051A   26139.50789378  .00000279  00000+0  15434-4 0  9994
2 45939  97.2848 208.1576 0005889  56.7218 303.4582 15.21275845322987
NEMO-HD                 
1 46277U 20061F   26139.48917623  .00006948  00000+0  15455-3 0  9995
2 46277  97.1932 201.7424 0002604 115.4835 244.6683 15.43960072317559
NAPA-1                  
1 46320U 20061BA  26139.53656956  .00040294  00000+0  42377-3 0  9994
2 46320  97.2480 212.8562 0001837 140.5420 219.5974 15.64213164317256
JILIN-1 GAOFEN 3E       
1 46457U 20065D   26139.51943985  .00039178  00000+0  47964-3 0  9994
2 46457  97.2277 191.5353 0010071 257.1734 102.8399 15.60224696315289
JILIN-1 GAOFEN 3F       
1 46458U 20065E   26139.49886755  .00034747  00000+0  46322-3 0  9997
2 46458  97.2233 188.9761 0011698 246.3525 113.6503 15.57965194315232
JILIN-1 GAOFEN 3G       
1 46459U 20065F   26139.50457115  .00063795  00000+0  61559-3 0  9998
2 46459  97.2306 195.3555 0012647 151.3619 208.8338 15.66189725315445
JILIN-1 GAOFEN 3H       
1 46460U 20065G   26139.48587025  .00049279  00000+0  52837-3 0  9991
2 46460  97.2249 191.8166 0008772 101.3998 258.8247 15.63634039315399
HAIYANG-2C              
1 46469U 20066A   26139.53704549 -.00000125  00000+0 -40090-4 0  9997
2 46469  65.9976 286.6151 0009952 239.7490 120.2593 13.83371608285536
HJ-2A                   
1 46478U 20067A   26139.50022613  .00000118  00000+0  24094-4 0  9996
2 46478  97.8830 218.5482 0003707  23.3159 336.8219 14.76569733304028
HJ-2B                   
1 46479U 20067B   26139.46881477  .00000569  00000+0  88863-4 0  9997
2 46479  97.8894 219.5179 0001270  78.8064 281.3288 14.76517371304027
GONETS-M 17             
1 46486U 20068A   26139.55216066  .00000041  00000+0  22124-3 0  9994
2 46486  82.5007   5.3194 0023392  96.9103 263.4639 12.42872124255605
GONETS-M 18             
1 46487U 20068B   26139.51581573  .00000171  00000+0  11619-2 0  9999
2 46487  82.4960   4.4708 0020709  93.4308 266.9141 12.42871971255584
GONETS-M 19             
1 46488U 20068C   26139.49165826  .00000101  00000+0  65750-3 0  9995
2 46488  82.4985   4.9309 0014337 107.1662 253.0989 12.42891520255680
DEKART                  
1 46493U 20068H   26139.56108836  .00007943  00000+0  22432-3 0  9998
2 46493  97.8748 146.7978 0009956  38.1088 322.0857 15.36622279311375
NORBI                   
1 46494U 20068J   26139.51715642  .00015377  00000+0  30475-3 0  9999
2 46494  97.8639 152.9843 0006682  21.2311 338.9213 15.47133031311771
